CALSPHERE 1             
1 00900U 64063C   20120.86475819  .00000220  00000-0  22658-3 0  9991
2 00900  90.1576  27.6063 0025527 198.7822 283.1073 13.73363727763788
CALSPHERE 2             
1 00902U 64063E   20120.76542583  .00000019  00000-0  15173-4 0  9996
2 00902  90.1689  30.2241 0016396 245.9253 173.4691 13.52682707553503
LCS 1                   
1 01361U 65034C   20120.87293491  .00000000  00000-0 -10430-2 0  9998
2 01361  32.1399  93.8810 0004908 303.9031  56.0999  9.89297131988113
TEMPSAT 1               
1 01512U 65065E   20120.73913074  .00000018  00000-0  16710-4 0  9998
2 01512  89.8765 226.6956 0071308  58.0610 102.7609 13.33427179661591
CALSPHERE 4(A)          
1 01520U 65065H   20120.88708935  .00000057  00000-0  95016-4 0  9990
2 01520  90.0313 128.9645 0068236 299.9029 134.5663 13.35811440663717
OPS 5712 (P/L 160)      
1 02826U 67053A   20120.89136553  .00000526  00000-0  15447-3 0  9991
2 02826  69.9276 312.6088 0005454 349.5933  10.5086 14.49049501739906
OPS 5712 (P/L 153)      
1 02874U 67053H   20120.70630098 -.00000027  00000-0  18894-4 0  9994
2 02874  69.9745 233.0623 0009532 234.1978 125.8243 13.96347211694152
SURCAL 150B             
1 02909U 67053J   20120.83144529  .00000692  00000-0  15226-3 0  9998
2 02909  69.9482 338.4603 0002336  54.1113 306.0243 14.61706111750273
RIGIDSPHERE 2 (LCS 4)   
1 05398U 71067E   20120.81553926  .00000151  00000-0  46519-4 0  9996
2 05398  87.6266 237.5651 0065504  74.1571 286.6834 14.33878571552675
